TEVEL2-3                
1 63218U 25052J   26068.64540225  .00020365  00000+0  69446-3 0  9991
2 63218  97.3994 324.7775 0004761 105.7353 254.4413 15.30377031 54855
STARLINK-34239          
1 64728U 25144E   26068.62417513  .00034550  00000+0  11737-2 0  9991
2 64728  53.1602 181.2192 0001334  77.2019 282.9131 15.30186319 39709
